NORAD_CAT_ID,OBJECT_NAME,OBJECT_TYPE,EPOCH,MEAN_MOTION,ECCENTRICITY,INCLINATION,RA_OF_ASC_NODE,ARG_OF_PERICENTER,MEAN_ANOMALY,BSTAR,MEAN_MOTION_DOT,MEAN_MOTION_DDOT,TLE_LINE0,TLE_LINE1,TLE_LINE2,SEMIMAJOR_AXIS,PERIOD,APOGEE,PERIGEE,DECAYED
51734.0,STARLINK-3450,PAYLOAD,2024-02-23 07:39:07,15.08840049,0.0001369,53.2174,65.2182,90.9049,269.21,8.6485e-05,1.089e-05,0.0,0 STARLINK-3450,1 51734U 22016W   24054.31884109  .00001089  00000-0  86485-4 0  9993,2 51734  53.2174  65.2182 0001369  90.9049 269.2100 15.08840049112146,6917.88,95.438,540.692,538.798,0.0
51734.0,STARLINK-3450,PAYLOAD,2024-02-23 17:11:27,15.0883068,0.0001381,53.2174,63.434,98.4262,261.6886,0.00021377,3.115e-05,0.0,0 STARLINK-3450,1 51734U 22016W   24054.71628568  .00003115  00000-0  21377-3 0  9992,2 51734  53.2174  63.4340 0001381  98.4262 261.6886 15.08830680112200,6917.909,95.438,540.729,538.819,0.0
51734.0,STARLINK-3450,PAYLOAD,2024-02-24 07:29:55,15.08832824,0.0001583,53.2189,60.7611,101.2486,258.8684,2.2503e-05,7e-07,0.0,0 STARLINK-3450,1 51734U 22016W   24055.31245079  .00000070  00000-0  22503-4 0  9991,2 51734  53.2189  60.7611 0001583 101.2486 258.8684 15.08832824111184,6917.902,95.438,540.862,538.672,0.0
51734.0,STARLINK-3450,PAYLOAD,2024-02-24 17:02:14,15.08837441,0.0001577,53.2189,58.9764,99.3979,260.7192,2.6724e-05,1.37e-06,0.0,0 STARLINK-3450,1 51734U 22016W   24055.70988911  .00000137  00000-0  26724-4 0  9996,2 51734  53.2189  58.9764 0001577  99.3979 260.7192 15.08837441111242,6917.888,95.438,540.844,538.662,0.0
51734.0,STARLINK-3450,PAYLOAD,2024-02-25 05:45:18,15.08846014,0.000163,53.2186,56.5973,102.4937,257.6238,0.00010203,1.336e-05,0.0,0 STARLINK-3450,1 51734U 22016W   24056.23980207  .00001336  00000-0  10203-3 0  9991,2 51734  53.2186  56.5973 0001630 102.4937 257.6238 15.08846014112439,6917.862,95.437,540.855,538.599,0.0
51734.0,STARLINK-3450,PAYLOAD,2024-02-25 07:20:41,15.08847336,0.0001618,53.2187,56.2999,101.9067,258.2107,0.00011114,1.482e-05,0.0,0 STARLINK-3450,1 51734U 22016W   24056.30604091  .00001482  00000-0  11114-3 0  9997,2 51734  53.2187  56.2999 0001618 101.9067 258.2107 15.08847336111337,6917.858,95.437,540.842,538.604,0.0
51734.0,STARLINK-3450,PAYLOAD,2024-02-25 16:53:00,15.08850412,0.0001471,53.218,54.5133,87.722,272.3941,7.525e-05,9.1e-06,0.0,0 STARLINK-3450,1 51734U 22016W   24056.70347891  .00000910  00000-0  75250-4 0  9990,2 51734  53.2180  54.5133 0001471  87.7220 272.3941 15.08850412111398,6917.849,95.437,540.731,538.696,0.0
51734.0,STARLINK-3450,PAYLOAD,2024-02-26 04:00:43,15.08836276,0.0001561,53.2181,52.432,83.2456,276.8713,0.00011761,1.584e-05,0.0,0 STARLINK-3450,1 51734U 22016W   24057.16716839  .00001584  00000-0  11761-3 0  9997,2 51734  53.2181  52.4320 0001561  83.2456 276.8713 15.08836276112575,6917.892,95.438,540.837,538.677,0.0
51734.0,STARLINK-3450,PAYLOAD,2024-02-26 07:11:29,15.08841123,0.0001556,53.2184,51.8367,75.9139,284.2026,0.00012735,1.739e-05,0.0,0 STARLINK-3450,1 51734U 22016W   24057.29964547  .00001739  00000-0  12735-3 0  9996,2 51734  53.2184  51.8367 0001556  75.9139 284.2026 15.08841123111488,6917.877,95.437,540.818,538.666,0.0
51734.0,STARLINK-3450,PAYLOAD,2024-02-26 23:05:18,15.0887093,0.0001496,53.2204,48.8614,92.3216,267.7948,0.00024462,3.611e-05,0.0,0 STARLINK-3450,1 51734U 22016W   24057.96201435  .00003611  00000-0  24462-3 0  9991,2 51734  53.2204  48.8614 0001496  92.3216 267.7948 15.08870930111582,6917.786,95.436,540.686,538.616,0.0
51734.0,STARLINK-3450,PAYLOAD,2024-02-27 03:51:27,15.08867179,0.0001419,53.2191,47.9671,83.1148,277.0005,0.00023781,3.502e-05,0.0,0 STARLINK-3450,1 51734U 22016W   24058.16073459  .00003502  00000-0  23781-3 0  9999,2 51734  53.2191  47.9671 0001419  83.1148 277.0005 15.08867179112723,6917.797,95.436,540.644,538.681,0.0
51734.0,STARLINK-3450,PAYLOAD,2024-02-27 05:26:51,15.08852416,0.0001298,53.2184,47.674,104.3775,255.7361,2.1979e-05,6.2e-07,0.0,0 STARLINK-3450,1 51734U 22016W   24058.22698567  .00000062  00000-0  21979-4 0  9995,2 51734  53.2184  47.6740 0001298 104.3775 255.7361 15.08852416112733,6917.842,95.437,540.605,538.81,0.0
51734.0,STARLINK-3450,PAYLOAD,2024-02-27 16:34:35,15.08827913,0.0001746,53.2193,45.5916,83.9871,276.132,-0.00015395,-2.737e-05,0.0,0 STARLINK-3450,1 51734U 22016W   24058.69069121 -.00002737  00000-0 -15395-3 0  9991,2 51734  53.2193  45.5916 0001746  83.9871 276.1320 15.08827913112806,6917.917,95.438,540.99,538.574,0.0
51734.0,STARLINK-3450,PAYLOAD,2024-02-27 22:56:08,15.08822987,0.0001637,53.2183,44.402,87.0998,273.0181,-0.00010881,-2.018e-05,0.0,0 STARLINK-3450,1 51734U 22016W   24058.95565422 -.00002018  00000-0 -10881-3 0  9992,2 51734  53.2183  44.4020 0001637  87.0998 273.0181 15.08822987111731,6917.932,95.439,540.93,538.665,0.0
51734.0,STARLINK-3450,PAYLOAD,2024-02-28 05:17:40,15.08830273,0.0001336,53.217,43.2134,97.5254,262.589,-0.0001259,-2.29e-05,0.0,0 STARLINK-3450,1 51734U 22016W   24059.22061066 -.00002290  00000-0 -12590-3 0  9999,2 51734  53.2170  43.2134 0001336  97.5254 262.5890 15.08830273111778,6917.91,95.438,540.699,538.851,0.0
51734.0,STARLINK-3450,PAYLOAD,2024-02-28 16:25:22,15.08834656,0.0001464,53.2181,41.1308,95.2932,264.8227,-5.9907e-05,-1.241e-05,0.0,0 STARLINK-3450,1 51734U 22016W   24059.68428797 -.00001241  00000-0 -59907-4 0  9996,2 51734  53.2181  41.1308 0001464  95.2932 264.8227 15.08834656112959,6917.897,95.438,540.775,538.749,0.0
51734.0,STARLINK-3450,PAYLOAD,2024-02-29 05:08:26,15.08862028,0.0001532,53.2173,38.7523,87.5799,272.5368,-0.00025504,-4.347e-05,0.0,0 STARLINK-3450,1 51734U 22016W   24060.21419173 -.00004347  00000-0 -25504-3 0  9990,2 51734  53.2173  38.7523 0001532  87.5799 272.5368 15.08862028113038,6917.813,95.436,540.738,538.618,0.0
51734.0,STARLINK-3450,PAYLOAD,2024-02-29 08:19:12,15.08862936,0.0001563,53.2181,38.1549,111.3332,248.7827,-0.00023366,-4.007e-05,0.0,0 STARLINK-3450,1 51734U 22016W   24060.34666773 -.00004007  00000-0 -23366-3 0  9991,2 51734  53.2181  38.1549 0001563 111.3332 248.7827 15.08862936111943,6917.81,95.436,540.757,538.594,0.0
51734.0,STARLINK-3450,PAYLOAD,2024-02-29 22:37:42,15.08819068,0.0001162,53.2185,35.48,96.8696,263.2429,0.0002725,4.049e-05,0.0,0 STARLINK-3450,1 51734U 22016W   24060.94285524  .00004049  00000-0  27250-3 0  9998,2 51734  53.2185  35.4800 0001162  96.8696 263.2429 15.08819068112031,6917.944,95.439,540.613,539.006,0.0
51734.0,STARLINK-3450,PAYLOAD,2024-03-01 03:23:52,15.08820202,0.0001153,53.2184,34.5879,99.261,260.8513,0.00025664,3.797e-05,0.0,0 STARLINK-3450,1 51734U 22016W   24061.14157651  .00003797  00000-0  25664-3 0  9996,2 51734  53.2184  34.5879 0001153  99.2610 260.8513 15.08820202113174,6917.941,95.439,540.604,539.008,0.0
51734.0,STARLINK-3450,PAYLOAD,2024-03-01 04:59:15,15.08827895,0.0001301,53.2187,34.2925,95.0079,265.1062,0.00016287,2.304e-05,0.0,0 STARLINK-3450,1 51734U 22016W   24061.20781477  .00002304  00000-0  16287-3 0  9996,2 51734  53.2187  34.2925 0001301  95.0079 265.1062 15.08827895112074,6917.917,95.438,540.682,538.882,0.0
51734.0,STARLINK-3450,PAYLOAD,2024-03-01 14:31:33,15.0883416,0.0001403,53.2187,32.5076,89.2618,270.8535,0.00015118,2.119e-05,0.0,0 STARLINK-3450,1 51734U 22016W   24061.60525361  .00002119  00000-0  15118-3 0  9994,2 51734  53.2187  32.5076 0001403  89.2618 270.8535 15.08834160113240,6917.898,95.438,540.734,538.793,0.0
51734.0,STARLINK-3450,PAYLOAD,2024-03-02 03:14:38,15.08847249,0.0001389,53.2178,30.1268,90.9265,269.1886,0.00014322,1.993e-05,0.0,0 STARLINK-3450,1 51734U 22016W   24062.13516606  .00001993  00000-0  14322-3 0  9990,2 51734  53.2178  30.1268 0001389  90.9265 269.1886 15.08847249113328,6917.858,95.437,540.684,538.762,0.0
51734.0,STARLINK-3450,PAYLOAD,2024-03-03 04:40:49,15.08837767,0.0001346,53.2179,25.3703,78.441,281.6733,8.9387e-05,1.135e-05,0.0,0 STARLINK-3450,1 51734U 22016W   24063.19501479  .00001135  00000-0  89387-4 0  9991,2 51734  53.2179  25.3703 0001346  78.4410 281.6733 15.08837767113486,6917.887,95.438,540.683,538.821,0.0
51734.0,STARLINK-3450,PAYLOAD,2024-03-04 04:31:35,15.08855514,0.0001608,53.2186,20.9118,81.1004,279.017,0.00026693,3.964e-05,0.0,0 STARLINK-3450,1 51734U 22016W   24064.18860478  .00003964  00000-0  26693-3 0  9990,2 51734  53.2186  20.9118 0001608  81.1004 279.0170 15.08855514113639,6917.833,95.437,540.81,538.586,0.0
51734.0,STARLINK-3450,PAYLOAD,2024-03-04 06:06:58,15.08858048,0.0001562,53.2192,20.6139,80.9564,279.1605,0.00020549,2.985e-05,0.0,0 STARLINK-3450,1 51734U 22016W   24064.25483915  .00002985  00000-0  20549-3 0  9991,2 51734  53.2192  20.6139 0001562  80.9564 279.1605 15.08858048112530,6917.825,95.436,540.771,538.61,0.0
51734.0,STARLINK-3450,PAYLOAD,2024-03-04 14:03:54,15.08844159,0.0001706,53.2207,19.1241,86.4463,273.6724,0.00010869,1.442e-05,0.0,0 STARLINK-3450,1 51734U 22016W   24064.58604747  .00001442  00000-0  10869-3 0  9996,2 51734  53.2207  19.1241 0001706  86.4463 273.6724 15.08844159113690,6917.868,95.437,540.913,538.552,0.0
51734.0,STARLINK-3450,PAYLOAD,2024-03-05 02:47:01,15.08822813,0.0001429,53.2185,16.7478,77.5743,282.5409,-3.9246e-05,-9.12e-06,0.0,0 STARLINK-3450,1 51734U 22016W   24065.11598854 -.00000912  00000-0 -39246-4 0  9991,2 51734  53.2185  16.7478 0001429  77.5743 282.5409 15.08822813113775,6917.933,95.439,540.786,538.809,0.0
51734.0,STARLINK-3450,PAYLOAD,2024-03-05 05:57:46,15.08832754,0.0001221,53.2177,16.1529,87.7912,272.322,7.4765e-06,-1.69e-06,0.0,0 STARLINK-3450,1 51734U 22016W   24065.24845691 -.00000169  00000-0  74765-5 0  9998,2 51734  53.2177  16.1529 0001221  87.7912 272.3220 15.08832754112680,6917.903,95.438,540.612,538.923,0.0
51734.0,STARLINK-3450,PAYLOAD,2024-03-05 20:16:14,15.08838654,0.0001488,53.2188,13.4752,82.7085,277.4076,3.6454e-05,2.92e-06,0.0,0 STARLINK-3450,1 51734U 22016W   24065.84461787  .00000292  00000-0  36454-4 0  9992,2 51734  53.2188  13.4752 0001488  82.7085 277.4076 15.08838654113884,6917.885,95.438,540.779,538.72,0.0
